GALAXY 17 (G-17)    [PM]
1 31307C 07016B   22180.98837963 -.00000084  00000-0  00000-0 0  1809
2 31307   0.0181  67.2933 0002191  40.0854  75.4590  1.00273527    18
INTELSAT 11 (IS-11)     
1 32253C 07044B   22174.00000000 -.00000178  00000-0  00000-0 0  1748
2 32253   0.0095  44.0588 0001286  54.0162 130.0630  1.00272970    17
INTELSAT 11 (IS-11) [PM]
1 32253C 07044B   22177.63733796 -.00000183  00000-0  00000-0 0  1774
2 32253   0.0036 351.7839 0001108 112.3922 356.9973  1.00272875    17
INTELSAT 11 (IS-11)     
1 32253C 07044B   22178.00000000 -.00000176  00000-0  00000-0 0  1784
2 32253   0.0030 358.0845 0001136 108.2814 125.7243  1.00273025    13
HORIZONS-2              
1 32388C 07063B   22174.00000000 -.00000092  00000-0  00000-0 0  1743
2 32388   0.0141 330.2139 0002874 119.1467 266.6211  1.00271231    15
HORIZONS-2          [PM]
1 32388C 07063B   22175.93250000 -.00000092  00000-0  00000-0 0  1754
2 32388   0.0113 346.9445 0002783 105.8054 240.8377  1.00273138    16
HORIZONS-2              
1 32388C 07063B   22178.00000000 -.00000093  00000-0  00000-0 0  1782
2 32388   0.0095   7.6404 0002752  87.5550 264.7375  1.00272814    17
GALAXY 18 (G-18)        
1 32951C 08024A   22174.00000000 -.00002988  00000-0  00000-0 0  1743
2 32951   0.0049  36.3229 0002922  61.0519  50.7531  1.00266316    14
GALAXY 18 (G-18)    [PM]
1 32951C 08024A   22177.34861111  .00000115  00000-0  00000-0 0  1773
2 32951   0.0134 313.7259 0002725 145.1439 178.0649  1.00273116    10
GALAXY 18 (G-18)        
1 32951C 08024A   22178.00000000  .00000118  00000-0  00000-0 0  1783
2 32951   0.0103 321.6410 0002684 137.8001  52.6389  1.00273150    16
GALAXY 18 (G-18)    [PM]
1 32951C 08024A   22179.59444444  .00000080  00000-0  00000-0 0  1791
2 32951   0.0033 343.5933 0002692 114.7502 269.3209  1.00270771    14
INTELSAT 25 (IS-25)     
1 33153C 08034A   22174.00000000 -.00000139  00000-0  00000-0 0  1745
2 33153   0.0284 124.5283 0002912 338.0479 137.0619  1.00271933    18
INTELSAT 25 (IS-25)     
1 33153C 08034A   22178.00000000 -.00000134  00000-0  00000-0 0  1788
2 33153   0.0344 105.2972 0002864   3.1839 135.0977  1.00271438    17
INTELSAT 25 (IS-25) [PM]
1 33153C 08034A   22178.59031250 -.00000098  00000-0  00000-0 0  1782
2 33153   0.0092 303.2977 0002698 165.6232 347.7511  1.00273121    15
GALAXY 19 (G-19)        
1 33376C 08045A   22174.00000000 -.00000134  00000-0  00000-0 0  1749
2 33376   0.0010  11.3123 0002837  81.8998  80.9217  1.00272076    12
GALAXY 19 (G-19)        
1 33376C 08045A   22178.00000000 -.00000052  00000-0  00000-0 0  1786
2 33376   0.0141  57.0177 0002737  41.8128  79.2533  1.00272288    10
GALAXY 19 (G-19)    [PM]
1 33376C 08045A   22178.77232639 -.00000049  00000-0  00000-0 0  1781
2 33376   0.0293 295.1451 0002762 165.8882 355.8519  1.00271571    11
INTELSAT 14 (IS-14)     
1 36097C 09064A   22174.00000000 -.00000188  00000-0  00000-0 0  1743
2 36097   0.0090 316.3545 0002456 144.7032 125.0769  1.00272707    18
INTELSAT 14 (IS-14)     
1 36097C 09064A   22178.00000000 -.00000185  00000-0  00000-0 0  1788
2 36097   0.0019  14.5812 0002381  91.6559 123.8471  1.00271850    18
INTELSAT 14 (IS-14) [PM]
1 36097C 09064A   22180.83652778 -.00000178  00000-0  00000-0 0  1802
2 36097   0.0066  51.8894 0002261  54.9114  67.2244  1.00273481    11
INTELSAT 15 (IS-15)     
1 36106C 09067A   22174.00000000 -.00000093  00000-0  00000-0 0  1742
2 36106   0.0131  28.1151 0002062  73.7154 254.4546  1.00272702    10
INTELSAT 15 (IS-15)     
1 36106C 09067A   22178.00000000 -.00000095  00000-0  00000-0 0  1782
2 36106   0.0234  52.0534 0001987  54.4471 253.7405  1.00272613    15
INTELSAT 15 (IS-15) [PM]
1 36106C 09067A   22178.28719907 -.00000095  00000-0  00000-0 0  1785
2 36106   0.0164 334.3365 0002015 130.2941 359.2856  1.00271466    10
INTELSAT 16 (IS-16)     
1 36397C 10006A   22174.00000000 -.00000155  00000-0  00000-0 0  1748
2 36397   0.0107  27.7288 0001857  82.6742  84.5299  1.00272636    17
INTELSAT 16 (IS-16)     
1 36397C 10006A   22178.00000000 -.00000150  00000-0  00000-0 0  1781
2 36397   0.0217  53.7884 0001792  62.8601  82.2341  1.00272006    16
INTELSAT 16 (IS-16) [PM]
1 36397C 10006A   22178.73688657 -.00000155  00000-0  00000-0 0  1786
2 36397   0.0136 335.2107 0001728 140.7155 348.9619  1.00272115    12
INTELSAT 17 (IS-17)     
1 37238C 10065B   22174.00000000 -.00003387  00000-0  00000-0 0  1748
2 37238   0.0370 229.6496 0002654 233.5907 233.8953  1.00271264    16
INTELSAT 17 (IS-17) [PM]
1 37238C 10065B   22177.32268519  .00000089  00000-0  00000-0 0  1775
2 37238   0.0481 249.7079 0002547 218.1073 348.7623  1.00272553    15
INTELSAT 17 (IS-17)     
1 37238C 10065B   22178.00000000  .00000089  00000-0  00000-0 0  1781
2 37238   0.0486 245.3908 0002582 223.8883 231.8011  1.00272932    18
INTELSAT NEW DAWN       
1 37392C 11016A   22174.00000000  .00000246  00000-0  00000-0 0  1746
2 37392   0.0352 259.2250 0000608 137.9432 266.7654  1.00274668    15
INTELSAT NEW DAWN   [PM]
1 37392C 11016A   22177.34739583  .00000247  00000-0  00000-0 0  1775
2 37392   0.0277 266.7856 0000934 103.2702  62.2578  1.00269776    12
INTELSAT NEW DAWN       
1 37392C 11016A   22178.00000000  .00000233  00000-0  00000-0 0  1780
2 37392   0.0254 270.0634 0000874 101.7486 296.0768  1.00270294    19
INTELSAT 18 (IS-18)     
1 37834C 11056A   22174.00000000  .00000142  00000-0  00000-0 0  1746
2 37834   0.0211   1.6850 0001743  96.3912 353.0521  1.00271443    18
INTELSAT 18 (IS-18)     
1 37834C 11056A   22178.00000000  .00000143  00000-0  00000-0 0  1785
2 37834   0.0240  25.6446 0001685  77.7996 351.6367  1.00273129    12
INTELSAT 18 (IS-18) [PM]
1 37834C 11056A   22179.01134259  .00000143  00000-0  00000-0 0  1792
2 37834   0.0207   7.5609 0001687  97.3003 355.3056  1.00273078    13
INTELSAT 22 (IS-22)     
1 38098C 12011A   22174.00000000 -.00002849  00000-0  00000-0 0  1748
2 38098   0.0192  75.2149 0002605  31.7984 236.2231  1.00272412    14
INTELSAT 22 (IS-22) [PM]
1 38098C 12011A   22176.80740741  .00000032  00000-0  00000-0 0  1764
2 38098   0.0121 315.0275 0002578 158.6970 162.9524  1.00272589    19
INTELSAT 22 (IS-22)     
1 38098C 12011A   22178.00000000 -.00000002  00000-0  00000-0 0  1785
2 38098   0.0070 330.0876 0002574 144.9333 232.1680  1.00272719    11
INTELSAT 22 (IS-22) [PM]
1 38098C 12011A   22178.43188657  .00000028  00000-0  00000-0 0  1784
2 38098   0.0029 342.7563 0002506 132.7275  27.6068  1.00271836    19
INTELSAT 19 (IS-19)     
1 38356C 12030A   22174.00000000  .00000044  00000-0  00000-0 0  1740
2 38356   0.0062 320.7383 0002776 133.7423 342.6718  1.00270755    15
INTELSAT 19 (IS-19) [PM]
1 38356C 12030A   22175.28472222  .00000004  00000-0  00000-0 0  1757
2 38356   0.0027 341.1104 0002760 113.4668  86.3387  1.00271168    16
INTELSAT 19 (IS-19)     
1 38356C 12030A   22178.00000000  .00000048  00000-0  00000-0 0  1782
2 38356   0.0021  23.9112 0002704  74.3485 342.8298  1.00271643    13
INTELSAT 20 (IS-20) [PM]
1 38740C 12043A   22173.51805556  .00000077  00000-0  00000-0 0  1730
2 38740   0.0204 111.9646 0001458  74.9289 338.7625  1.00271834    16
INTELSAT 20 (IS-20)     
1 38740C 12043A   22173.94164352 -.00002782  00000-0  00000-0 0  1735
2 38740   0.0301 129.1703 0001367  68.2340 121.1616  1.00270113    15
INTELSAT 20 (IS-20)     
1 38740C 12043A   22178.00000000 -.00003065  00000-0  00000-0 0  1786
2 38740   0.0464 170.5871 0001178  35.5713 137.4209  1.00271350    14
INTELSAT 21 (IS-21)     
1 38749C 12045A   22174.00000000 -.00000192  00000-0  00000-0 0  1747
2 38749   0.0067 328.8699 0001970 127.6078 116.6498  1.00273132    14
INTELSAT 21 (IS-21) [PM]
1 38749C 12045A   22175.45486111 -.00000237  00000-0  00000-0 0  1759
2 38749   0.0040 348.9896 0001889 108.9923 280.3361  1.00272954    16
INTELSAT 21 (IS-21)     
1 38749C 12045A   22178.00000000 -.00000253  00000-0  00000-0 0  1783
2 38749   0.0046  23.2827 0001869  78.3296 115.4705  1.00272232    19
INTELSAT 23 (IS-23)     
1 38867C 12057A   22174.00000000 -.00000195  00000-0  00000-0 0  1744
2 38867   0.0349 110.6905 0000832  91.3899  16.0625  1.00271982    15
INTELSAT 23 (IS-23)     
1 38867C 12057A   22178.00000000 -.00000195  00000-0  00000-0 0  1782
2 38867   0.0314  99.6441 0000846  76.1191  46.3033  1.00286805    18
INTELSAT 23 (IS-23) [PM]
1 38867C 12057A   22178.41952546 -.00003271  00000-0  00000-0 0  1786
2 38867   0.0210  74.7695 0000236  11.5622 287.2010  1.00273802    17
INTELSAT 30 (IS-30)     
1 40271C 14062A   22173.94164352 -.00000213  00000-0  00000-0 0  1737
2 40271   0.0034  51.0441 0001372  32.9496  71.0170  1.00270495    19
INTELSAT 30 (IS-30) [PM]
1 40271C 14062A   22174.31473380 -.00000059  00000-0  00000-0 0  1742
2 40271   0.0047 328.8597 0001402  97.5373 223.2926  1.00272676    18
INTELSAT 30 (IS-30)     
1 40271C 14062A   22178.00000000 -.00000116  00000-0  00000-0 0  1785
2 40271   0.0021   4.4982 0001347  68.5769 106.9484  1.00270815    19
INTELSAT 34 (IS-34)     
1 40874C 15039A   22173.94164352 -.00000195  00000-0  00000-0 0  1730
2 40874   0.0108   6.7997 0000206 349.2552 198.5241  1.00270429    16
INTELSAT 34 (IS-34) [PM]
1 40874C 15039A   22174.66739583 -.00000195  00000-0  00000-0 0  1745
2 40874   0.0119 333.4322 0000389 359.2341 123.8926  1.00273247    11
INTELSAT 34 (IS-34)     
1 40874C 15039A   22178.00000000 -.00000197  00000-0  00000-0 0  1788
2 40874   0.0094  10.2522 0000240 317.2730 252.0642  1.00271056    13
INTELSAT 31 (IS-31)     
1 41581C 16035A   22173.94164352 -.00000064  00000-0  00000-0 0  1738
2 41581   0.0144 271.0438 0001780 319.1608 284.8171  1.00270715    14
INTELSAT 31 (IS-31) [PM]
1 41581C 16035A   22175.30797454 -.00000069  00000-0  00000-0 0  1752
2 41581   0.0207 262.7559 0001720 324.4461  61.0413  1.00272793    17
